TIANMU-1 14             
1 58648U 23205D   26176.69179684  .00006238  00000+0  23846-3 0  9999
2 58648  97.3400 197.3180 0006019 309.9942  50.0768 15.26940418138803
TIANMU-1 19             
1 58660U 23208A   26176.71480350  .00009335  00000+0  30750-3 0  9997
2 58660  97.4506 293.0587 0003444 286.8384  73.2479 15.31692954138634
TIANMU-1 20             
1 58661U 23208B   26176.74597818  .00009536  00000+0  30257-3 0  9994
2 58661  97.4449 293.7342 0005579 296.6304  63.4366 15.32883685138730
TIANMU-1 21             
1 58662U 23208C   26176.72138547  .00011260  00000+0  33146-3 0  9990
2 58662  97.4507 296.4271 0005666 286.1865  73.8754 15.35217690138871
TIANMU-1 22             
1 58663U 23208D   26176.76484949  .00008678  00000+0  29076-3 0  9991
2 58663  97.4503 293.0377 0002475 326.5913  33.5172 15.31169071138643
TIANMU-1 15             
1 58700U 24004A   26176.48630681  .00006049  00000+0  23132-3 0  9990
2 58700  97.4669   2.6785 0005858 324.9927  35.0926 15.26956768137048
TIANMU-1 16             
1 58701U 24004B   26176.73901816  .00006533  00000+0  25057-3 0  9996
2 58701  97.4616   2.1589 0004979 336.2290  23.8717 15.26829081137084
TIANMU-1 17             
1 58702U 24004C   26176.72447788  .00006652  00000+0  25509-3 0  9993
2 58702  97.4643   2.6325 0004657 343.7688  16.3401 15.26827967137072
TIANMU-1 18             
1 58703U 24004D   26176.69958132  .00004121  00000+0  15891-3 0  9992
2 58703  97.4660   2.8688 0003501 331.3324  28.7722 15.26876936137076
INSAT-3DS               
1 58990U 24033A   26176.68381347 -.00000145  00000+0  00000+0 0  9994
2 58990   0.0587 102.1091 0001440 341.2656 158.6947  1.00270803 47151
METEOR-M2 4             
1 59051U 24039A   26176.76515976  .00000009  00000+0  23694-4 0  9992
2 59051  98.7013 135.9555 0007753 137.8476 222.3300 14.22430372120486
GOES 19                 
1 60133U 24119A   26176.51008703 -.00000238  00000+0  00000+0 0  9998
2 60133   0.0443 168.6712 0000479 333.6942 239.7212  1.00271645  7040
MTG-S1                  
1 64723U 25143A   26175.74071355  .00000023  00000+0  00000+0 0  9993
2 64723   0.5970 340.6178 0000585 288.6722 269.7793  1.00400949  3493
METOP-SGA1              
1 65159U 25172A   26176.66671596  .00000036  00000+0  37301-4 0  9997
2 65159  98.6642 236.2142 0008161  28.8421 331.3205 14.19816367 44993
FENGYUN 3H              
1 65815U 25219A   26176.56746558  .00000037  00000+0  37968-4 0  9998
2 65815  98.6768 117.1737 0001540  71.6390 288.4954 14.19921751 38577
